TISAT 1                 
1 36799U 10035E   26068.75703561  .00024554  00000+0  91005-3 0  9996
2 36799  98.0645   6.8512 0001343 159.3030 200.8262 15.27628633852505
STARLINK-33611          
1 63279U 25053Q   26067.50043365  .00039698  00000+0  14420-2 0  9996
2 63279  42.9988 244.8488 0001540 262.4035  97.6642 15.27634247 56162
